start=new Date('2023-04-01T00:00:00.000Z').valueOf();
sats=[{"TLE_LINE1":"1 48301U 21036AB  23090.50383101  .00017754  00000-0  12088-2 0  9998","REF_FRAME":"TEME","SITE":"AFETR","RA_OF_ASC_NODE":"233.8211","RCS_SIZE":"LARGE","PERIOD":"95.594","CLASSIFICATION_TYPE":"U","TIME_SYSTEM":"UTC","EPOCH":"2023-03-31T12:05:30.999264","ELEMENT_SET_NO":"999","TLE_LINE2":"2 48301  53.0519 233.8211 0000906 111.8845 248.2241 15.06369313106843","ARG_OF_PERICENTER":"111.8845","MEAN_MOTION":"15.06369313","MEAN_ELEMENT_THEORY":"SGP4","GP_ID":"229196271","ECCENTRICITY":"0.00009060","APOAPSIS":"547.935","NORAD_CAT_ID":"48301","DECAY_DATE":null,"COUNTRY_CODE":"US","LAUNCH_DATE":"2021-04-29","OBJECT_NAME":"STARLINK-2537","INCLINATION":"53.0519","EPHEMERIS_TYPE":"0","MEAN_ANOMALY":"248.2241","OBJECT_ID":"2021-036AB","REV_AT_EPOCH":"10684","OBJECT_TYPE":"PAYLOAD","PERIAPSIS":"546.680","FILE":"3876129","BSTAR":"0.00120880000000","MEAN_MOTION_DDOT":"0.0000000000000","MEAN_MOTION_DOT":"0.00017754","CENTER_NAME":"EARTH","SEMIMAJOR_AXIS":"6925.443"},{"RA_OF_ASC_NODE":"232.6495","SITE":"AFETR","REF_FRAME":"TEME","TLE_LINE1":"1 48302U 21036AC  23090.76553353  .00043774  00000-0  29393-2 0  9993","CLASSIFICATION_TYPE":"U","PERIOD":"95.592","RCS_SIZE":"LARGE","TLE_LINE2":"2 48302  53.0520 232.6495 0001183 108.0602 252.0516 15.06402101106889","ARG_OF_PERICENTER":"108.0602","TIME_SYSTEM":"UTC","EPOCH":"2023-03-31T18:22:22.096992","ELEMENT_SET_NO":"999","GP_ID":"229204300","ECCENTRICITY":"0.00011830","MEAN_ELEMENT_THEORY":"SGP4","MEAN_MOTION":"15.06402101","NORAD_CAT_ID":"48302","APOAPSIS":"548.026","OBJECT_ID":"2021-036AC","OBJECT_NAME":"STARLINK-2556","INCLINATION":"53.0520","EPHEMERIS_TYPE":"0","MEAN_ANOMALY":"252.0516","COUNTRY_CODE":"US","LAUNCH_DATE":"2021-04-29","DECAY_DATE":null,"PERIAPSIS":"546.388","OBJECT_TYPE":"PAYLOAD","REV_AT_EPOCH":"10688","CENTER_NAME":"EARTH","SEMIMAJOR_AXIS":"6925.342","MEAN_MOTION_DOT":"0.00043774","BSTAR":"0.00293930000000","MEAN_MOTION_DDOT":"0.0000000000000","FILE":"3876463"},{"ARG_OF_PERICENTER":"66.4221","TLE_LINE2":"2 48303  53.0525 232.6638 0001392  66.4221 293.6914 15.06366281106892","TIME_SYSTEM":"UTC","EPOCH":"2023-03-31T18:15:42.329376","ELEMENT_SET_NO":"999","MEAN_ELEMENT_THEORY":"SGP4","GP_ID":"229204702","ECCENTRICITY":"0.00013920","MEAN_MOTION":"15.06366281","SITE":"AFETR","RA_OF_ASC_NODE":"232.6638","TLE_LINE1":"1 48303U 21036AD  23090.76090659  .00031296  00000-0  21125-2 0  9990","REF_FRAME":"TEME","PERIOD":"95.594","CLASSIFICATION_TYPE":"U","RCS_SIZE":"LARGE","PERIAPSIS":"546.353","REV_AT_EPOCH":"10689","OBJECT_TYPE":"PAYLOAD","MEAN_MOTION_DOT":"0.00031296","CENTER_NAME":"EARTH","SEMIMAJOR_AXIS":"6925.452","FILE":"3876471","BSTAR":"0.00211250000000","MEAN_MOTION_DDOT":"0.0000000000000","APOAPSIS":"548.281","NORAD_CAT_ID":"48303","MEAN_ANOMALY":"293.6914","INCLINATION":"53.0525","OBJECT_NAME":"STARLINK-2530","EPHEMERIS_TYPE":"0","OBJECT_ID":"2021-036AD","DECAY_DATE":null,"COUNTRY_CODE":"US","LAUNCH_DATE":"2021-04-29"},{"REF_FRAME":"TEME","TLE_LINE1":"1 48304U 21036AE  23090.62546650  .00005456  00000-0  38491-3 0  9997","RA_OF_ASC_NODE":"233.2808","SITE":"AFETR","RCS_SIZE":"LARGE","CLASSIFICATION_TYPE":"U","PERIOD":"95.592","TIME_SYSTEM":"UTC","ELEMENT_SET_NO":"999","EPOCH":"2023-03-31T15:00:40.305600","ARG_OF_PERICENTER":"75.3723","TLE_LINE2":"2 48304  53.0538 233.2808 0001295  75.3723 284.7409 15.06399671106878","MEAN_MOTION":"15.06399671","ECCENTRICITY":"0.00012950","GP_ID":"229204315","MEAN_ELEMENT_THEORY":"SGP4","NORAD_CAT_ID":"48304","APOAPSIS":"548.111","LAUNCH_DATE":"2021-04-29","COUNTRY_CODE":"US","DECAY_DATE":null,"OBJECT_ID":"2021-036AE","MEAN_ANOMALY":"284.7409","OBJECT_NAME":"STARLINK-2524","INCLINATION":"53.0538","EPHEMERIS_TYPE":"0","OBJECT_TYPE":"PAYLOAD","REV_AT_EPOCH":"10687","PERIAPSIS":"546.318","BSTAR":"0.00038491000000","MEAN_MOTION_DDOT":"0.0000000000000","FILE":"3876460","CENTER_NAME":"EARTH","SEMIMAJOR_AXIS":"6925.350","MEAN_MOTION_DOT":"0.00005456"},{"PERIAPSIS":"546.065","OBJECT_TYPE":"PAYLOAD","REV_AT_EPOCH":"10679","SEMIMAJOR_AXIS":"6925.335","CENTER_NAME":"EARTH","MEAN_MOTION_DOT":"-0.00015054","MEAN_MOTION_DDOT":"0.0000000000000","BSTAR":"-0.00099374000000","FILE":"3875784","NORAD_CAT_ID":"48305","APOAPSIS":"548.335","OBJECT_ID":"2021-036AF","INCLINATION":"53.0535","EPHEMERIS_TYPE":"0","OBJECT_NAME":"STARLINK-2519","MEAN_ANOMALY":"282.8137","LAUNCH_DATE":"2021-04-29","COUNTRY_CODE":"US","DECAY_DATE":null,"TLE_LINE2":"2 48305  53.0535 235.6709 0001639  77.3035 282.8137 15.06404547106799","ARG_OF_PERICENTER":"77.3035","EPOCH":"2023-03-31T02:09:40.852224","ELEMENT_SET_NO":"999","TIME_SYSTEM":"UTC","GP_ID":"229188906","ECCENTRICITY":"0.00016390","MEAN_ELEMENT_THEORY":"SGP4","MEAN_MOTION":"15.06404547","RA_OF_ASC_NODE":"235.6709","SITE":"AFETR","REF_FRAME":"TEME","TLE_LINE1":"1 48305U 21036AF  23090.09005616 -.00015054  00000-0 -99374-3 0  9995","CLASSIFICATION_TYPE":"U","PERIOD":"95.592","RCS_SIZE":"LARGE"},{"TIME_SYSTEM":"UTC","EPOCH":"2023-03-31T14:50:02.870592","ELEMENT_SET_NO":"999","TLE_LINE2":"2 48306  53.0515 233.3136 0000900  95.9278 264.1813 15.06365257106879","ARG_OF_PERICENTER":"95.9278","MEAN_MOTION":"15.06365257","MEAN_ELEMENT_THEORY":"SGP4","ECCENTRICITY":"0.00009000","GP_ID":"229204655","TLE_LINE1":"1 48306U 21036AG  23090.61808878  .00017567  00000-0  11964-2 0  9992","REF_FRAME":"TEME","SITE":"AFETR","RA_OF_ASC_NODE":"233.3136","RCS_SIZE":"LARGE","PERIOD":"95.594","CLASSIFICATION_TYPE":"U","REV_AT_EPOCH":"10687","OBJECT_TYPE":"PAYLOAD","PERIAPSIS":"546.697","FILE":"3876483","BSTAR":"0.00119640000000","MEAN_MOTION_DDOT":"0.0000000000000","MEAN_MOTION_DOT":"0.00017567","CENTER_NAME":"EARTH","SEMIMAJOR_AXIS":"6925.455","APOAPSIS":"547.943","NORAD_CAT_ID":"48306","DECAY_DATE":null,"COUNTRY_CODE":"US","LAUNCH_DATE":"2021-04-29","INCLINATION":"53.0515","OBJECT_NAME":"STARLINK-2523","MEAN_ANOMALY":"264.1813","EPHEMERIS_TYPE":"0","OBJECT_ID":"2021-036AG"},{"OBJECT_TYPE":"PAYLOAD","REV_AT_EPOCH":"10684","PERIAPSIS":"546.069","MEAN_MOTION_DDOT":"0.0000000000000","BSTAR":"0.00083077000000","FILE":"3876152","SEMIMAJOR_AXIS":"6925.327","CENTER_NAME":"EARTH","MEAN_MOTION_DOT":"0.00012117","NORAD_CAT_ID":"48307","APOAPSIS":"548.315","LAUNCH_DATE":"2021-04-29","COUNTRY_CODE":"US","DECAY_DATE":null,"OBJECT_ID":"2021-036AH","OBJECT_NAME":"STARLINK-2528","EPHEMERIS_TYPE":"0","INCLINATION":"53.0520","MEAN_ANOMALY":"270.9680","EPOCH":"2023-03-31T09:58:08.227200","ELEMENT_SET_NO":"999","TIME_SYSTEM":"UTC","TLE_LINE2":"2 48307  53.0520 234.2237 0001621  89.1495 270.9680 15.06407004106846","ARG_OF_PERICENTER":"89.1495","MEAN_MOTION":"15.06407004","ECCENTRICITY":"0.00016210","GP_ID":"229196772","MEAN_ELEMENT_THEORY":"SGP4","REF_FRAME":"TEME","TLE_LINE1":"1 48307U 21036AH  23090.41537300  .00012117  00000-0  83077-3 0  9991","RA_OF_ASC_NODE":"234.2237","SITE":"AFETR","RCS_SIZE":"LARGE","CLASSIFICATION_TYPE":"U","PERIOD":"95.592"},{"RCS_SIZE":"LARGE","CLASSIFICATION_TYPE":"U","PERIOD":"95.596","REF_FRAME":"TEME","TLE_LINE1":"1 48308U 21036AJ  23090.80974518  .00026701  00000-0  18075-2 0  9990","RA_OF_ASC_NODE":"232.4494","SITE":"AFETR","MEAN_MOTION":"15.06341284","ECCENTRICITY":"0.00011310","GP_ID":"229204714","MEAN_ELEMENT_THEORY":"SGP4","ELEMENT_SET_NO":"999","EPOCH":"2023-03-31T19:26:01.983552","TIME_SYSTEM":"UTC","TLE_LINE2":"2 48308  53.0539 232.4494 0001131  21.2079 338.8956 15.06341284106907","ARG_OF_PERICENTER":"21.2079","COUNTRY_CODE":"US","LAUNCH_DATE":"2021-04-29","DECAY_DATE":null,"OBJECT_ID":"2021-036AJ","OBJECT_NAME":"STARLINK-2532","EPHEMERIS_TYPE":"0","MEAN_ANOMALY":"338.8956","INCLINATION":"53.0539","NORAD_CAT_ID":"48308","APOAPSIS":"548.177","MEAN_MOTION_DDOT":"0.0000000000000","BSTAR":"0.00180750000000","FILE":"3876472","SEMIMAJOR_AXIS":"6925.529","CENTER_NAME":"EARTH","MEAN_MOTION_DOT":"0.00026701","OBJECT_TYPE":"PAYLOAD","REV_AT_EPOCH":"10690","PERIAPSIS":"546.610"},{"NORAD_CAT_ID":"48309","APOAPSIS":"548.035","OBJECT_ID":"2021-036AK","MEAN_ANOMALY":"249.4201","INCLINATION":"53.0512","OBJECT_NAME":"STARLINK-2517","EPHEMERIS_TYPE":"0","COUNTRY_CODE":"US","LAUNCH_DATE":"2021-04-29","DECAY_DATE":null,"PERIAPSIS":"546.871","OBJECT_TYPE":"PAYLOAD","REV_AT_EPOCH":"10690","CENTER_NAME":"EARTH","SEMIMAJOR_AXIS":"6925.588","MEAN_MOTION_DOT":"0.00038136","BSTAR":"0.00257070000000","MEAN_MOTION_DDOT":"0.0000000000000","FILE":"3876472","RA_OF_ASC_NODE":"232.4683","SITE":"AFETR","REF_FRAME":"TEME","TLE_LINE1":"1 48309U 21036AK  23090.80606451  .00038136  00000-0  25707-2 0  9994","CLASSIFICATION_TYPE":"U","PERIOD":"95.597","RCS_SIZE":"LARGE","TLE_LINE2":"2 48309  53.0512 232.4683 0000840 110.6878 249.4201 15.06321944106906","ARG_OF_PERICENTER":"110.6878","TIME_SYSTEM":"UTC","ELEMENT_SET_NO":"999","EPOCH":"2023-03-31T19:20:43.973664","ECCENTRICITY":"0.00008400","GP_ID":"229204716","MEAN_ELEMENT_THEORY":"SGP4","MEAN_MOTION":"15.06321944"},{"DECAY_DATE":null,"COUNTRY_CODE":"US","LAUNCH_DATE":"2021-04-29","OBJECT_NAME":"STARLINK-2536","EPHEMERIS_TYPE":"0","MEAN_ANOMALY":"246.8968","INCLINATION":"53.0533","OBJECT_ID":"2021-036AL","APOAPSIS":"547.806","NORAD_CAT_ID":"48310","FILE":"3876470","MEAN_MOTION_DDOT":"0.0000000000000","BSTAR":"0.00216170000000","MEAN_MOTION_DOT":"0.00032055","SEMIMAJOR_AXIS":"6925.381","CENTER_NAME":"EARTH","REV_AT_EPOCH":"10690","OBJECT_TYPE":"PAYLOAD","PERIAPSIS":"546.687","RCS_SIZE":"LARGE","PERIOD":"95.593","CLASSIFICATION_TYPE":"U","TLE_LINE1":"1 48310U 21036AL  23090.80238784  .00032055  00000-0  21617-2 0  9996","REF_FRAME":"TEME","SITE":"AFETR","RA_OF_ASC_NODE":"232.4797","MEAN_MOTION":"15.06389298","MEAN_ELEMENT_THEORY":"SGP4","ECCENTRICITY":"0.00008080","GP_ID":"229204878","ELEMENT_SET_NO":"999","EPOCH":"2023-03-31T19:15:26.309376","TIME_SYSTEM":"UTC","TLE_LINE2":"2 48310  53.0533 232.4797 0000808 113.2106 246.8968 15.06389298106901","ARG_OF_PERICENTER":"113.2106"}];
